0 FENGYUN 1C DEB
1 30514U 99025AJC 13281.53893951  .00000762  00000-0  29009-3 0  7587
2 30514 098.8324 285.9668 0200341 136.1175 347.4506 14.23343260347615
0 FENGYUN 1C DEB
1 30514U 99025AJC 13282.72177933  .00000795  00000-0  30189-3 0  7592
2 30514 098.8322 287.1547 0200370 132.7171 288.3521 14.23348040347782
0 FENGYUN 1C DEB
1 30514U 99025AJC 13283.85803536  .00000854  00000-0  32319-3 0  7607
2 30514 098.8321 288.2958 0200393 129.4541 350.5644 14.23350634347946
0 FENGYUN 1C DEB
1 30514U 99025AJC 13284.97135598  .00000802  00000-0  30439-3 0  7612
2 30514 098.8318 289.4139 0200400 126.2637 295.2596 14.23351733348107
0 FENGYUN 1C DEB
1 30514U 99025AJC 13286.81163343  .00001010  00000-0  37869-3 0  7623
2 30514 098.8316 291.2620 0200420 120.9749 004.9453 14.23354071348361
0 FENGYUN 1C DEB
1 30514U 99025AJC 13287.99291850  .00001426  00000-0  52779-3 0  7637
2 30514 098.8315 292.4483 0200405 117.5828 297.9184 14.23358449348530
0 FENGYUN 1C DEB
1 30514U 99025AJC 13289.48840801  .00001022  00000-0  38325-3 0  7643
2 30514 098.8316 293.9499 0200397 113.2863 040.9206 14.23363430348746
0 FENGYUN 1C DEB
1 30514U 99025AJC 13290.53667138  .00001161  00000-0  43273-3 0  7654
2 30514 098.8317 295.0023 0200403 110.2716 012.3226 14.23365315348890
0 FENGYUN 1C DEB
1 30514U 99025AJC 13291.87158832  .00001276  00000-0  47418-3 0  7661
2 30514 098.8319 296.3426 0200414 106.4328 012.5809 14.23367659349085
0 FENGYUN 1C DEB
1 30514U 99025AJC 13292.97924523  .00001386  00000-0  51337-3 0  7679
2 30514 098.8320 297.4548 0200400 103.2505 288.3376 14.23369791349240
0 FENGYUN 1C DEB
1 30514U 99025AJC 13294.47875885  .00001327  00000-0  49216-3 0  7681
2 30514 098.8321 298.9604 0200398 098.9439 052.0238 14.23374539349454
0 FENGYUN 1C DEB
1 30514U 99025AJC 13295.52799936  .00001455  00000-0  53826-3 0  7695
2 30514 098.8321 300.0140 0200402 095.9310 028.4722 14.23377114349609
